IRIDIUM 149             
1 43250U 18030B   25200.58064117 -.00000004  00000+0 -86063-5 0  9990
2 43250  86.3929  69.4273 0001933  87.7327 272.4090 14.34217335382486
IRIDIUM 157             
1 43251U 18030C   25200.39036405 -.00000004  00000+0 -83465-5 0  9992
2 43251  86.3931  69.5529 0002255  88.0750 272.0704 14.34217412382436
IRIDIUM 140             
1 43252U 18030D   25200.61869668 -.00000019  00000+0 -13976-4 0  9998
2 43252  86.3930  69.4708 0001874  83.4130 276.7279 14.34217317382523
IRIDIUM 145             
1 43253U 18030E   25200.39670502  .00000069  00000+0  17436-4 0  9999
2 43253  86.3934  69.5368 0001771  91.3648 268.7751 14.34217579382424
IRIDIUM 146             
1 43254U 18030F   25200.37767716  .00000025  00000+0  17705-5 0  9994
2 43254  86.3930  69.5579 0001683  90.1701 269.9687 14.34217705382437
IRIDIUM 148             
1 43255U 18030G   25200.62504221  .00000175  00000+0  55348-4 0  9993
2 43255  86.3938  69.4925 0002191  91.2227 268.9220 14.34219087382505
IRIDIUM 142             
1 43256U 18030H   25200.59332553 -.00000002  00000+0 -78892-5 0  9998
2 43256  86.3928  69.4067 0001635  95.5531 264.5852 14.34217385382466
IRIDIUM 150             
1 43257U 18030J   25200.70115010  .00000018  00000+0 -48301-6 0  9998
2 43257  86.3934  69.4674 0001898  87.8907 272.2506 14.34217573382528
IRIDIUM 143             
1 43258U 18030K   25200.61235341  .00000004  00000+0 -57511-5 0  9996
2 43258  86.3934  69.5840 0001583  92.0639 268.0738 14.34217380382421
GAOFEN-1 02             
1 43259U 18031A   25200.81894023  .00000600  00000+0  92856-4 0  9999
2 43259  97.7705 260.6302 0005246   4.7246 355.4013 14.76606658393655
GAOFEN-1 03             
1 43260U 18031B   25200.86488579  .00000602  00000+0  93138-4 0  9997
2 43260  97.7698 260.5656 0006435  37.0569 323.1085 14.76593879393658
GAOFEN-1 04             
1 43262U 18031D   25200.84053176  .00000622  00000+0  95999-4 0  9997
2 43262  97.7708 260.6934 0003093  49.4613 310.6866 14.76600776393648
SUPERBIRD-B3            
1 43271U 18033A   25200.52180421 -.00000089  00000+0  00000+0 0  9990
2 43271   0.0155   1.4679 0001459 152.6239 133.2956  1.00271083 26722
HYLAS 4                 
1 43272U 18033B   25200.47801905 -.00000230  00000+0  00000+0 0  9990
2 43272   0.0672 262.3215 0000811 249.1464 284.5636  1.00269498 26737
YAOGAN-31 01A           
1 43275U 18034A   25200.82966251 -.00000048  00000+0  59278-4 0  9992
2 43275  63.3942 226.2708 0245664   6.3476 354.0566 13.45413068357492
YAOGAN-31 01B           
1 43276U 18034B   25200.82998432 -.00000033  00000+0  80647-4 0  9997
2 43276  63.3944 226.2648 0245678   6.3115 354.0910 13.45410308357502
YAOGAN-31 01C           
1 43277U 18034C   25200.82976816 -.00000048  00000+0  59459-4 0  9993
2 43277  63.3953 225.5871 0245845   6.0956 354.2968 13.45411377357523
WEINA 1B                
1 43279U 18034E   25200.82420834 -.00000048  00000+0  59869-4 0  9994
2 43279  63.3947 226.7368 0245628   6.8581 353.5705 13.45335382357491
IRNSS-1I                
1 43286U 18035A   25197.74243921  .00000077  00000+0  00000+0 0  9998
2 43286  28.7951  79.4255 0018190 177.0149   0.6821  1.00272718 26718
USA 283                 
1 43339U 18036A   25200.58967256 -.00000314  00000+0  00000+0 0  9994
2 43339   0.0161  62.0277 0000379 165.6434  56.3367  1.00267936 21955
COSMOS 2526             
1 43432U 18037A   25200.65287968 -.00000341  00000+0  00000+0 0  9992
2 43432   0.0283 101.7403 0000285 114.0395  84.9980  1.00271930 26622
TESS                    
1 43435U 18038A   25206.79310809 -.00002333  00000+0  00000+0 0  9991
2 43435  56.2540  48.6741 4645845  92.2651   5.8154  0.07761537  1318
SENTINEL-3B             
1 43437U 18039A   25200.42337221  .00000067  00000+0  45781-4 0  9996
2 43437  98.6286 267.6960 0001462 119.4236 240.7091 14.26738453376672
ZHUHAI-1 OVS-02         
1 43440U 18040B   25200.86436261  .00005158  00000+0  24436-3 0  9993
2 43440  97.0710 233.3943 0004139  23.4663 336.6761 15.19716480402155
ZHUHAI-1 OHS-02         
1 43441U 18040C   25200.85393225  .00008636  00000+0  32648-3 0  9993
2 43441  97.0767 238.3541 0011845 352.5183   7.5878 15.27132116402219
USA 285                 
1 43445U 18036E   25197.70892076 -.00000105  00000+0  00000+0 0  9996
2 43445   6.2959  70.9779 0010988 155.5766   4.4003  1.02113874 23512
USA 286                 
1 43446U 18036F   25200.58249634 -.00000093  00000+0  00000+0 0  9990
2 43446   6.3007  70.9094 0010784 153.8701  49.3790  1.02119790 23527
APSTAR-6C               
1 43450U 18041A   25200.90632634 -.00000315  00000+0  00000+0 0  9990
2 43450   0.0275 331.1616 0001279 281.2167 145.8510  1.00269768 26516
GAOFEN-5 01             
1 43461U 18043A   25200.49518328  .00000295  00000+0  71202-4 0  9994
2 43461  98.4078 161.1383 0002695  54.9078 305.2374 14.60190279383135
BANGABANDHUSAT-1        
1 43463U 18044A   25200.87891829 -.00000359  00000+0  00000+0 0  9994
2 43463   0.0291 108.2969 0002377  31.3163 233.8011  1.00271709 26402
GRACE-FO 1              
1 43476U 18047A   25200.57685814  .00002743  00000+0  80138-4 0  9996
2 43476  88.9767 243.8775 0010227 341.6307  18.4575 15.34859495398725
GRACE-FO 2              
1 43477U 18047B   25200.57718714  .00002782  00000+0  81320-4 0  9990
2 43477  88.9767 243.8770 0010225 341.5071  18.5809 15.34857886398729
IRIDIUM 161             
1 43478U 18047C   25200.51962848  .00000261  00000+0  71444-4 0  9990
2 43478  86.4473 227.4246 0002598  88.3926 271.7573 14.43281376377151
IRIDIUM 152             
1 43479U 18047D   25200.51530315  .00000047  00000+0  97586-5 0  9999
2 43479  86.3948 227.2871 0002369  88.0431 272.1036 14.34218010374807
IRIDIUM 147             
1 43480U 18047E   25200.45187844  .00000031  00000+0  41707-5 0  9996
2 43480  86.3950 227.3129 0002448  93.4021 266.7454 14.34217687374792
IRIDIUM 110             
1 43481U 18047F   25200.45822010  .00000159  00000+0  49866-4 0  9992
2 43481  86.3951 227.3933 0002770  87.4663 272.6849 14.34217992374782
IRIDIUM 162             
1 43482U 18047G   25200.51332853  .00000243  00000+0  66315-4 0  9993
2 43482  86.4472 227.3222 0002560  84.5747 275.5746 14.43279922377143
GAOFEN-6                
1 43484U 18048A   25200.81954525  .00000545  00000+0  85095-4 0  9996
2 43484  97.8215 269.8108 0013171 162.6781 197.4881 14.76604806384347
LUOJIA-1 01             
1 43485U 18048B   25200.82397622  .00001657  00000+0  19870-3 0  9999
2 43485  97.8420 279.2212 0010542 128.3206 231.8959 14.85349361384821
SES-12                  
1 43488U 18049A   25200.57495104 -.00000265  00000+0  00000+0 0  9995
2 43488   0.0112  23.9388 0000967 217.1777 358.4567  1.00268914 26085
FENGYUN 2H              
1 43491U 18050A   25200.57183103 -.00000127  00000+0  00000+0 0  9991
2 43491   2.1713  83.0822 0002119 122.1409  17.4099  1.00273981 26102
COSMOS 2527 [GLONASS-M] 
1 43508U 18053A   25198.50161550 -.00000020  00000+0  00000+0 0  9996
2 43508  65.3895  85.0866 0006867 230.2319 129.7697  2.13102138 55145
PAKTES 1A               
1 43529U 18056A   25200.83315814  .00001809  00000+0  16256-3 0  9995
2 43529  98.0826 339.6574 0022880 132.6732 227.6421 14.96844174382161
PRSS 1                  
1 43530U 18056B   25200.84663416  .00000682  00000+0  94270-4 0  9993
2 43530  97.8240 272.3105 0001570  83.1039 277.0352 14.81146875379228
BEIDOU-2 IGSO-7         
1 43539U 18057A   25200.90580911 -.00000085  00000+0  00000+0 0  9999
2 43539  55.1702 165.9338 0089836 236.5015 330.7206  1.00246659 25794
TELSTAR 19V             
1 43562U 18059A   25200.54361784 -.00000276  00000+0  00000+0 0  9994
2 43562   0.0371 198.1238 0002723 288.2527 303.8896  1.00270442 25838
GSAT0221 (GALILEO 25)   
1 43564U 18060A   25199.88478904 -.00000085  00000+0  00000+0 0  9993
2 43564  57.2643 350.7805 0002588 278.1226  81.8480  1.70475936 43491
GSAT0222 (GALILEO 26)   
1 43565U 18060B   25198.93074573 -.00000081  00000+0  00000+0 0  9999
2 43565  57.2681 350.8089 0002742 228.7278 131.2498  1.70475685 43512
GSAT0219 (GALILEO 23)   
1 43566U 18060C   25200.32523024 -.00000087  00000+0  00000+0 0  9993
2 43566  57.2668 350.7730 0001732 291.8391  68.1414  1.70475886 43514
GSAT0220 (GALILEO 24)   
1 43567U 18060D   25198.19974019 -.00000079  00000+0  00000+0 0  9990
2 43567  57.2672 350.8308 0001996 283.8653  76.1141  1.70475587 43464
IRIDIUM 160             
1 43569U 18061A   25200.47382489  .00000045  00000+0  91475-5 0  9996
2 43569  86.3987 195.7975 0002528  86.7881 273.3604 14.34217768365684
IRIDIUM 166             
1 43570U 18061B   25200.49919504  .00000013  00000+0 -24950-5 0  9994
2 43570  86.3991 195.7421 0001952  92.2233 267.9187 14.34217574365714
IRIDIUM 158             
1 43571U 18061C   25200.46748172  .00000031  00000+0  40866-5 0  9996
2 43571  86.3986 195.7650 0002274  84.0508 276.0947 14.34217676365678
IRIDIUM 165             
1 43572U 18061D   25200.49285873  .00000134  00000+0  40844-4 0  9993
2 43572  86.3988 195.7943 0002234  92.0547 268.0904 14.34218896365707
IRIDIUM 155             
1 43573U 18061E   25200.45479696  .00000041  00000+0  75823-5 0  9991
2 43573  86.3983 195.6960 0002103  83.0888 277.0547 14.34217729365666
IRIDIUM 154             
1 43574U 18061F   25200.50553819  .00000072  00000+0  18621-4 0  9994
2 43574  86.3988 195.7918 0002278  88.7616 271.3841 14.34217954365721
IRIDIUM 163             
1 43575U 18061G   25200.48651011  .00000078  00000+0  20635-4 0  9999
2 43575  86.3984 195.7255 0002379  85.0351 275.1116 14.34218000365696
IRIDIUM 156             
1 43576U 18061H   25200.46113926  .00000036  00000+0  56952-5 0  9992
2 43576  86.3985 195.7432 0001955  85.2346 274.9073 14.34217753365682
IRIDIUM 164             
1 43577U 18061J   25200.51188079 -.00000017  00000+0 -13158-4 0  9991
2 43577  86.3991 195.7571 0002126  94.9963 265.1476 14.34217283365730
